{
    "links": {
        "self": "http://www.neowsapp.com/rest/v1/neo/3883105?api_key=iIulBulltgU6a56xZRHN4H3l9WmuAYTsLGpBGhQ2"
    },
    "id": "3883105",
    "neo_reference_id": "3883105",
    "name": "(2019 UE8)",
    "designation": "2019 UE8",
    "nasa_jpl_url": "http://ssd.jpl.nasa.gov/sbdb.cgi?sstr=3883105",
    "absolute_magnitude_h": 25.7,
    "estimated_diameter": {
        "kilometers": {
            "estimated_diameter_min": 0.0192555078,
            "estimated_diameter_max": 0.0430566244
        },
        "meters": {
            "estimated_diameter_min": 19.2555078188,
            "estimated_diameter_max": 43.0566244241
        },
        "miles": {
            "estimated_diameter_min": 0.0119648141,
            "estimated_diameter_max": 0.0267541378
        },
        "feet": {
            "estimated_diameter_min": 63.1742402722,
            "estimated_diameter_max": 141.2618956756
        }
    },
    "is_potentially_hazardous_asteroid": false,
    "close_approach_data": [
        {
            "close_approach_date": "1944-10-15",
            "close_approach_date_full": "1944-Oct-15 00:02",
            "epoch_date_close_approach": -795657480000,
            "relative_velocity": {
                "kilometers_per_second": "14.8369143246",
                "kilometers_per_hour": "53412.8915684153",
                "miles_per_hour": "33188.6936526078"
            },
            "miss_distance": {
                "astronomical": "0.2744518759",
                "lunar": "106.7617797251",
                "kilometers": "41057416.052144333",
                "miles": "25511895.3324964754"
            },
            "orbiting_body": "Earth"
        },
        {
            "close_approach_date": "1945-02-08",
            "close_approach_date_full": "1945-Feb-08 22:22",
            "epoch_date_close_approach": -785554680000,
            "relative_velocity": {
                "kilometers_per_second": "2.6381337245",
                "kilometers_per_hour": "9497.2814082613",
                "miles_per_hour": "5901.2413283721"
            },
            "miss_distance": {
                "astronomical": "0.4774427706",
                "lunar": "185.7252377634",
                "kilometers": "71424421.528658622",
                "miles": "44381077.5599961036"
            },
            "orbiting_body": "Earth"
        },
        {
            "close_approach_date": "1969-10-10",
            "close_approach_date_full": "1969-Oct-10 13:44",
            "epoch_date_close_approach": -7121760000,
            "relative_velocity": {
                "kilometers_per_second": "17.2912014975",
                "kilometers_per_hour": "62248.3253909888",
                "miles_per_hour": "38678.6886297508"
            },
            "miss_distance": {
                "astronomical": "0.3555872792",
                "lunar": "138.3234516088",
                "kilometers": "53195099.567415304",
                "miles": "33053902.1413830352"
            },
            "orbiting_body": "Earth"
        },
        {
            "close_approach_date": "2019-11-15",
            "close_approach_date_full": "2019-Nov-15 14:31",
            "epoch_date_close_approach": 1573828260000,
            "relative_velocity": {
                "kilometers_per_second": "6.6298427673",
                "kilometers_per_hour": "23867.433962416",
                "miles_per_hour": "14830.2952862579"
            },
            "miss_distance": {
                "astronomical": "0.0196725479",
                "lunar": "7.6526211331",
                "kilometers": "2942971.263312973",
                "miles": "1828677.5461181074"
            },
            "orbiting_body": "Earth"
        }
    ],
    "orbital_data": {
        "orbit_id": "7",
        "orbit_determination_date": "2019-12-03 19:59:05",
        "first_observation_date": "2019-10-19",
        "last_observation_date": "2019-11-23",
        "data_arc_in_days": 35,
        "observations_used": 42,
        "orbit_uncertainty": "7",
        "minimum_orbit_intersection": ".0058835",
        "jupiter_tisserand_invariant": "4.058",
        "epoch_osculation": "2459000.5",
        "eccentricity": ".431809335396079",
        "semi_major_axis": "1.723221256002164",
        "inclination": ".3821498936395833",
        "ascending_node_longitude": ".9791107833495044",
        "orbital_period": "826.2471822262467",
        "perihelion_distance": ".9791182307074728",
        "perihelion_argument": "75.55870030302336",
        "aphelion_distance": "2.467324281296854",
        "perihelion_time": "2458822.454145518178",
        "mean_anomaly": "77.57546287874021",
        "mean_motion": ".4357049654680979",
        "equinox": "J2000",
        "orbit_class": {
            "orbit_class_type": "APO",
            "orbit_class_description": "Near-Earth asteroid orbits which cross the Earth’s orbit similar to that of 1862 Apollo",
            "orbit_class_range": "a (semi-major axis) > 1.0 AU; q (perihelion) < 1.017 AU"
        }
    },
    "is_sentry_object": false
}